{"type": "FeatureCollection", "features": [ {"type": "Feature", "properties": {"norad_id": 67001, "name": "2025-292J", "group": "last-30-days", "lat": 5.1736923758321485, "lon": 58.264339008535806, "alt_km": 556.9513151886149, "timestamp": "2025-12-12T09:49:07.484092+00:00", "meta": {"OBJECT_NAME": "2025-292J", "OBJECT_ID": "2025-292J", "EPOCH": "2025-12-11T21:01:26.583168", "MEAN_MOTION": 15.04279228, "ECCENTRICITY": 0.00145483, "INCLINATION": 97.6573, "RA_OF_ASC_NODE": 58.4343, "ARG_OF_PERICENTER": 271.9613, "MEAN_ANOMALY": 87.9946, "EPHEMERIS_TYPE": 0, "CLASSIFICATION_TYPE": "U", "NORAD_CAT_ID": 67001, "ELEMENT_SET_NO": 999, "REV_AT_EPOCH": 26, "BSTAR": 0.00057837428, "MEAN_MOTION_DOT": 8.011e-05, "MEAN_MOTION_DDOT": 0}, "tle": {"line1": "1 67001U 25292J   25345.87600212  .00008011  00000+0  57837-3 0  9991", "line2": "2 67001  97.6573  58.4343 0014548 271.9613  87.9946 15.04279228   262"}}, "geometry": {"type": "Point", "coordinates": [58.264339008535806, 5.1736923758321485]}}, {"type": "Feature", "properties": {"norad_id": 67002, "name": "ZK-1A R/B", "group": "last-30-days", "lat": 42.68485899789555, "lon": 51.97021494052164, "alt_km": 278.13320619621936, "timestamp": "2025-12-12T09:49:07.484103+00:00", "meta": {"OBJECT_NAME": "ZK-1A R/B", "OBJECT_ID": "2025-292K", "EPOCH": "2025-12-12T03:27:39.675744", "MEAN_MOTION": 15.54252213, "ECCENTRICITY": 0.0221567, "INCLINATION": 97.7244, "RA_OF_ASC_NODE": 58.8759, "ARG_OF_PERICENTER": 8.169, "MEAN_ANOMALY": 352.3074, "EPHEMERIS_TYPE": 0, "CLASSIFICATION_TYPE": "U", "NORAD_CAT_ID": 67002, "ELEMENT_SET_NO": 999, "REV_AT_EPOCH": 30, "BSTAR": 0.00099995, "MEAN_MOTION_DOT": 0.00200959, "MEAN_MOTION_DDOT": 1.2489e-05}, "tle": {"line1": "1 67002U 25292K   25346.14420921  .00200959  12489-4  99995-3 0  9995", "line2": "2 67002  97.7244  58.8759 0221567   8.1690 352.3074 15.54252213   306"}}, "geometry": {"type": "Point", "coordinates": [51.97021494052164, 42.68485899789555]}}]}